{"type": "FeatureCollection", "features": [ {"type": "Feature", "properties": {"norad_id": 30386, "name": "FENGYUN 1C DEB", "group": "fengyun-1c-debris", "lat": -67.44616442152453, "lon": -84.34041813846494, "alt_km": 1281.8320029573097, "timestamp": "2025-12-26T08:37:54.856404+00:00", "meta": {"OBJECT_NAME": "FENGYUN 1C DEB", "OBJECT_ID": "1999-025ACZ", "EPOCH": "2025-12-24T16:24:06.770016", "MEAN_MOTION": 13.55610958, "ECCENTRICITY": 0.03043556, "INCLINATION": 98.6909, "RA_OF_ASC_NODE": 252.5703, "ARG_OF_PERICENTER": 124.6608, "MEAN_ANOMALY": 269.5784, "EPHEMERIS_TYPE": 0, "CLASSIFICATION_TYPE": "U", "NORAD_CAT_ID": 30386, "ELEMENT_SET_NO": 999, "REV_AT_EPOCH": 92991, "BSTAR": 0.0019056002, "MEAN_MOTION_DOT": 1.75e-05, "MEAN_MOTION_DDOT": 0}, "tle": {"line1": "1 30386U 99025ACZ 25358.68341169  .00001750  00000+0  19056-2 0  9991", "line2": "2 30386  98.6909 252.5703 0304355 124.6608 269.5784 13.55610958929918"}}, "geometry": {"type": "Point", "coordinates": [-84.34041813846494, -67.44616442152453]}}, {"type": "Feature", "properties": {"norad_id": 30387, "name": "FENGYUN 1C DEB", "group": "fengyun-1c-debris", "lat": 61.57631459955856, "lon": -1.3239814099433547, "alt_km": 835.3121091895655, "timestamp": "2025-12-26T08:37:54.856414+00:00", "meta": {"OBJECT_NAME": "FENGYUN 1C DEB", "OBJECT_ID": "1999-025ADA", "EPOCH": "2025-12-25T12:41:17.863008", "MEAN_MOTION": 14.15065168, "ECCENTRICITY": 0.0001151, "INCLINATION": 98.656, "RA_OF_ASC_NODE": 14.2169, "ARG_OF_PERICENTER": 90.6992, "MEAN_ANOMALY": 61.3287, "EPHEMERIS_TYPE": 0, "CLASSIFICATION_TYPE": "U", "NORAD_CAT_ID": 30387, "ELEMENT_SET_NO": 999, "REV_AT_EPOCH": 97505, "BSTAR": 0.00024648, "MEAN_MOTION_DOT": 4.35e-06, "MEAN_MOTION_DDOT": 0}, "tle": {"line1": "1 30387U 99025ADA 25359.52867897  .00000435  00000+0  24648-3 0  9990", "line2": "2 30387  98.6560  14.2169 0001151  90.6992  61.3287 14.15065168975053"}}, "geometry": {"type": "Point", "coordinates": [-1.3239814099433547, 61.57631459955856]}}, {"type": "Feature", "properties": {"norad_id": 30388, "name": "FENGYUN 1C DEB", "group": "fengyun-1c-debris", "lat": -27.764872707744427, "lon": -163.9215805053247, "alt_km": 990.8808702551241, "timestamp": "2025-12-26T08:37:54.856424+00:00", "meta": {"OBJECT_NAME": "FENGYUN 1C DEB", "OBJECT_ID": "1999-025ADB", "EPOCH": "2025-12-26T01:10:13.771200", "MEAN_MOTION": 14.1980093, "ECCENTRICITY": 0.0221528, "INCLINATION": 98.5984, "RA_OF_ASC_NODE": 20.3449, "ARG_OF_PERICENTER": 24.4171, "MEAN_ANOMALY": 35.6264, "EPHEMERIS_TYPE": 0, "CLASSIFICATION_TYPE": "U", "NORAD_CAT_ID": 30388, "ELEMENT_SET_NO": 999, "REV_AT_EPOCH": 97621, "BSTAR": 0.00045345, "MEAN_MOTION_DOT": 1.183e-05, "MEAN_MOTION_DDOT": 0}, "tle": {"line1": "1 30388U 99025ADB 25360.04877050  .00001183  00000+0  45345-3 0  9990", "line2": "2 30388  98.5984  20.3449 0221528  24.4171  35.6264 14.19800930976214"}}, "geometry": {"type": "Point", "coordinates": [-163.9215805053247, -27.764872707744427]}}, {"type": "Feature", "properties": {"norad_id": 30389, "name": "FENGYUN 1C DEB", "group": "fengyun-1c-debris", "lat": 6.992489980194088, "lon": 81.03108714701897, "alt_km": 756.9006680045186, "timestamp": "2025-12-26T08:37:54.856434+00:00", "meta": {"OBJECT_NAME": "FENGYUN 1C DEB", "OBJECT_ID": "1999-025ADC", "EPOCH": "2025-12-26T03:53:57.916032", "MEAN_MOTION": 14.44257116, "ECCENTRICITY": 0.0014688, "INCLINATION": 98.8367, "RA_OF_ASC_NODE": 81.9196, "ARG_OF_PERICENTER": 185.7033, "MEAN_ANOMALY": 236.8454, "EPHEMERIS_TYPE": 0, "CLASSIFICATION_TYPE": "U", "NORAD_CAT_ID": 30389, "ELEMENT_SET_NO": 999, "REV_AT_EPOCH": 97980, "BSTAR": 0.0022749, "MEAN_MOTION_DOT": 7.788e-05, "MEAN_MOTION_DDOT": 0}, "tle": {"line1": "1 30389U 99025ADC 25360.16247588  .00007788  00000+0  22749-2 0  9990", "line2": "2 30389  98.8367  81.9196 0014688 185.7033 236.8454 14.44257116979804"}}, "geometry": {"type": "Point", "coordinates": [81.03108714701897, 6.992489980194088]}}, {"type": "Feature", "properties": {"norad_id": 30390, "name": "FENGYUN 1C DEB", "group": "fengyun-1c-debris", "lat": -46.05955480425687, "lon": -105.53027937865714, "alt_km": 808.1387900160162, "timestamp": "2025-12-26T08:37:54.856444+00:00", "meta": {"OBJECT_NAME": "FENGYUN 1C DEB", "OBJECT_ID": "1999-025ADD", "EPOCH": "2025-12-24T05:19:11.456832", "MEAN_MOTION": 14.29826892, "ECCENTRICITY": 0.00677338, "INCLINATION": 98.8223, "RA_OF_ASC_NODE": 81.5783, "ARG_OF_PERICENTER": 131.6584, "MEAN_ANOMALY": 255.3289, "EPHEMERIS_TYPE": 0, "CLASSIFICATION_TYPE": "U", "NORAD_CAT_ID": 30390, "ELEMENT_SET_NO": 999, "REV_AT_EPOCH": 97548, "BSTAR": 0.0017392471, "MEAN_MOTION_DOT": 4.542e-05, "MEAN_MOTION_DDOT": 0}, "tle": {"line1": "1 30390U 99025ADD 25358.22166038  .00004542  00000+0  17392-2 0  9999", "line2": "2 30390  98.8223  81.5783 0067733 131.6584 255.3289 14.29826892975483"}}, "geometry": {"type": "Point", "coordinates": [-105.53027937865714, -46.05955480425687]}}, {"type": "Feature", "properties": {"norad_id": 30391, "name": "FENGYUN 1C DEB", "group": "fengyun-1c-debris", "lat": -17.213081220969848, "lon": -136.56928832344553, "alt_km": 795.808118707535, "timestamp": "2025-12-26T08:37:54.856454+00:00", "meta": {"OBJECT_NAME": "FENGYUN 1C DEB", "OBJECT_ID": "1999-025ADE", "EPOCH": "2025-12-26T02:54:32.906016", "MEAN_MOTION": 14.16295531, "ECCENTRICITY": 0.0072104, "INCLINATION": 98.7795, "RA_OF_ASC_NODE": 45.9398, "ARG_OF_PERICENTER": 223.7169, "MEAN_ANOMALY": 198.8602, "EPHEMERIS_TYPE": 0, "CLASSIFICATION_TYPE": "U", "NORAD_CAT_ID": 30391, "ELEMENT_SET_NO": 999, "REV_AT_EPOCH": 97068, "BSTAR": 0.0010714, "MEAN_MOTION_DOT": 2.135e-05, "MEAN_MOTION_DDOT": 0}, "tle": {"line1": "1 30391U 99025ADE 25360.12121419  .00002135  00000+0  10714-2 0  9993", "line2": "2 30391  98.7795  45.9398 0072104 223.7169 198.8602 14.16295531970686"}}, "geometry": {"type": "Point", "coordinates": [-136.56928832344553, -17.213081220969848]}}, {"type": "Feature", "properties": {"norad_id": 30392, "name": "FENGYUN 1C DEB", "group": "fengyun-1c-debris", "lat": 60.953833367923224, "lon": -145.2560893667738, "alt_km": 984.0730138001054, "timestamp": "2025-12-26T08:37:54.856464+00:00", "meta": {"OBJECT_NAME": "FENGYUN 1C DEB", "OBJECT_ID": "1999-025ADF", "EPOCH": "2025-12-25T23:50:16.869120", "MEAN_MOTION": 14.07483822, "ECCENTRICITY": 0.0180425, "INCLINATION": 98.7852, "RA_OF_ASC_NODE": 18.2197, "ARG_OF_PERICENTER": 319.4475, "MEAN_ANOMALY": 102.0034, "EPHEMERIS_TYPE": 0, "CLASSIFICATION_TYPE": "U", "NORAD_CAT_ID": 30392, "ELEMENT_SET_NO": 999, "REV_AT_EPOCH": 96857, "BSTAR": 0.00064922, "MEAN_MOTION_DOT": 1.224e-05, "MEAN_MOTION_DDOT": 0}, "tle": {"line1": "1 30392U 99025ADF 25359.99325080  .00001224  00000+0  64922-3 0  9996", "line2": "2 30392  98.7852  18.2197 0180425 319.4475 102.0034 14.07483822968573"}}, "geometry": {"type": "Point", "coordinates": [-145.2560893667738, 60.953833367923224]}}, {"type": "Feature", "properties": {"norad_id": 30393, "name": "FENGYUN 1C DEB", "group": "fengyun-1c-debris", "lat": 25.108607970394427, "lon": -117.51703720429022, "alt_km": 876.9779527182882, "timestamp": "2025-12-26T08:37:54.856475+00:00", "meta": {"OBJECT_NAME": "FENGYUN 1C DEB", "OBJECT_ID": "1999-025ADG", "EPOCH": "2025-12-26T03:00:20.189952", "MEAN_MOTION": 13.98993082, "ECCENTRICITY": 0.0070191, "INCLINATION": 99.1637, "RA_OF_ASC_NODE": 57.9105, "ARG_OF_PERICENTER": 223.0645, "MEAN_ANOMALY": 192.0932, "EPHEMERIS_TYPE": 0, "CLASSIFICATION_TYPE": "U", "NORAD_CAT_ID": 30393, "ELEMENT_SET_NO": 999, "REV_AT_EPOCH": 96517, "BSTAR": 6.7567e-05, "MEAN_MOTION_DOT": 5.4e-07, "MEAN_MOTION_DDOT": 0}, "tle": {"line1": "1 30393U 99025ADG 25360.12523368  .00000054  00000+0  67567-4 0  9992", "line2": "2 30393  99.1637  57.9105 0070191 223.0645 192.0932 13.98993082965178"}}, "geometry": {"type": "Point", "coordinates": [-117.51703720429022, 25.108607970394427]}}, {"type": "Feature", "properties": {"norad_id": 30394, "name": "FENGYUN 1C DEB", "group": "fengyun-1c-debris", "lat": -32.08749029290087, "lon": 34.92753594324666, "alt_km": 922.1589223590372, "timestamp": "2025-12-26T08:37:54.856485+00:00", "meta": {"OBJECT_NAME": "FENGYUN 1C DEB", "OBJECT_ID": "1999-025ADH", "EPOCH": "2025-12-25T14:27:05.779008", "MEAN_MOTION": 13.95795337, "ECCENTRICITY": 0.0089762, "INCLINATION": 99.4335, "RA_OF_ASC_NODE": 28.1689, "ARG_OF_PERICENTER": 66.9183, "MEAN_ANOMALY": 57.2763, "EPHEMERIS_TYPE": 0, "CLASSIFICATION_TYPE": "U", "NORAD_CAT_ID": 30394, "ELEMENT_SET_NO": 999, "REV_AT_EPOCH": 96283, "BSTAR": 0.0003852, "MEAN_MOTION_DOT": 4.98e-06, "MEAN_MOTION_DDOT": 0}, "tle": {"line1": "1 30394U 99025ADH 25359.60215022  .00000498  00000+0  38520-3 0  9997", "line2": "2 30394  99.4335  28.1689 0089762  66.9183  57.2763 13.95795337962833"}}, "geometry": {"type": "Point", "coordinates": [34.92753594324666, -32.08749029290087]}}, {"type": "Feature", "properties": {"norad_id": 30395, "name": "FENGYUN 1C DEB", "group": "fengyun-1c-debris", "lat": 16.533149914365357, "lon": -161.79730016479954, "alt_km": 1021.5566330720139, "timestamp": "2025-12-26T08:37:54.856495+00:00", "meta": {"OBJECT_NAME": "FENGYUN 1C DEB", "OBJECT_ID": "1999-025ADJ", "EPOCH": "2025-12-25T13:31:31.060416", "MEAN_MOTION": 13.96709429, "ECCENTRICITY": 0.0159797, "INCLINATION": 98.93, "RA_OF_ASC_NODE": 14.7545, "ARG_OF_PERICENTER": 350.8774, "MEAN_ANOMALY": 131.3282, "EPHEMERIS_TYPE": 0, "CLASSIFICATION_TYPE": "U", "NORAD_CAT_ID": 30395, "ELEMENT_SET_NO": 999, "REV_AT_EPOCH": 96202, "BSTAR": 0.00056283, "MEAN_MOTION_DOT": 8.26e-06, "MEAN_MOTION_DDOT": 0}, "tle": {"line1": "1 30395U 99025ADJ 25359.56355394  .00000826  00000+0  56283-3 0  9991", "line2": "2 30395  98.9300  14.7545 0159797 350.8774 131.3282 13.96709429962028"}}, "geometry": {"type": "Point", "coordinates": [-161.79730016479954, 16.533149914365357]}}]}